[{"OBJECT_NAME":"STARLINK-35339","OBJECT_ID":"2025-232Z","EPOCH":"2026-03-09T08:45:21.216096","MEAN_MOTION":15.30227089,"ECCENTRICITY":0.00012993,"INCLINATION":53.1593,"RA_OF_ASC_NODE":105.5608,"ARG_OF_PERICENTER":92.8221,"MEAN_ANOMALY":267.2929,"EPHEMERIS_TYPE":0,"CLASSIFICATION_TYPE":"U","NORAD_CAT_ID":66028,"ELEMENT_SET_NO":999,"REV_AT_EPOCH":2338,"BSTAR":0.00081322377,"MEAN_MOTION_DOT":0.00023824,"MEAN_MOTION_DDOT":0},{"OBJECT_NAME":"COSMOS 1953","OBJECT_ID":"1988-050A","EPOCH":"2026-03-09T18:09:26.993952","MEAN_MOTION":15.28528086,"ECCENTRICITY":0.00124769,"INCLINATION":82.5105,"RA_OF_ASC_NODE":158.18,"ARG_OF_PERICENTER":122.2454,"MEAN_ANOMALY":237.9996,"EPHEMERIS_TYPE":0,"CLASSIFICATION_TYPE":"U","NORAD_CAT_ID":19210,"ELEMENT_SET_NO":999,"REV_AT_EPOCH":3779,"BSTAR":0.00029210954,"MEAN_MOTION_DOT":8.158e-5,"MEAN_MOTION_DDOT":0}]
